[{"OBJECT_NAME":"STARLINK-34009","OBJECT_ID":"2025-093P","EPOCH":"2026-01-08T04:03:39.600576","MEAN_MOTION":15.27592714,"ECCENTRICITY":0.00011229,"INCLINATION":43.0014,"RA_OF_ASC_NODE":56.4584,"ARG_OF_PERICENTER":263.351,"MEAN_ANOMALY":96.7214,"EPHEMERIS_TYPE":0,"CLASSIFICATION_TYPE":"U","NORAD_CAT_ID":63849,"ELEMENT_SET_NO":999,"REV_AT_EPOCH":3875,"BSTAR":0.00093882518,"MEAN_MOTION_DOT":0.00025672,"MEAN_MOTION_DDOT":0},{"OBJECT_NAME":"STARLINK-33958","OBJECT_ID":"2025-093Q","EPOCH":"2026-01-08T04:12:12.884832","MEAN_MOTION":15.27594238,"ECCENTRICITY":0.0001761,"INCLINATION":43.0008,"RA_OF_ASC_NODE":59.972,"ARG_OF_PERICENTER":286.0887,"MEAN_ANOMALY":73.977,"EPHEMERIS_TYPE":0,"CLASSIFICATION_TYPE":"U","NORAD_CAT_ID":63850,"ELEMENT_SET_NO":999,"REV_AT_EPOCH":3855,"BSTAR":0.001161716,"MEAN_MOTION_DOT":0.00031858,"MEAN_MOTION_DDOT":0},{"OBJECT_NAME":"STARLINK-33776","OBJECT_ID":"2025-093R","EPOCH":"2026-01-07T13:09:17.594784","MEAN_MOTION":15.27605743,"ECCENTRICITY":0.0001465,"INCLINATION":43.0025,"RA_OF_ASC_NODE":63,"ARG_OF_PERICENTER":271.5614,"MEAN_ANOMALY":88.507,"EPHEMERIS_TYPE":0,"CLASSIFICATION_TYPE":"U","NORAD_CAT_ID":63851,"ELEMENT_SET_NO":999,"REV_AT_EPOCH":3861,"BSTAR":0.001088151,"MEAN_MOTION_DOT":0.00029826,"MEAN_MOTION_DDOT":0},{"OBJECT_NAME":"STARLINK-34032","OBJECT_ID":"2025-093T","EPOCH":"2026-01-08T03:20:23.035200","MEAN_MOTION":15.27615571,"ECCENTRICITY":0.00015135,"INCLINATION":43.0026,"RA_OF_ASC_NODE":59.6775,"ARG_OF_PERICENTER":261.0078,"MEAN_ANOMALY":99.0602,"EPHEMERIS_TYPE":0,"CLASSIFICATION_TYPE":"U","NORAD_CAT_ID":63853,"ELEMENT_SET_NO":999,"REV_AT_EPOCH":3871,"BSTAR":0.00088630274,"MEAN_MOTION_DOT":0.00024234,"MEAN_MOTION_DDOT":0},{"OBJECT_NAME":"STARLINK-34015","OBJECT_ID":"2025-093U","EPOCH":"2026-01-08T04:15:54.755712","MEAN_MOTION":15.27598418,"ECCENTRICITY":9.786e-5,"INCLINATION":43.0006,"RA_OF_ASC_NODE":59.9681,"ARG_OF_PERICENTER":260.0101,"MEAN_ANOMALY":100.064,"EPHEMERIS_TYPE":0,"CLASSIFICATION_TYPE":"U","NORAD_CAT_ID":63854,"ELEMENT_SET_NO":999,"REV_AT_EPOCH":3855,"BSTAR":0.0011575723,"MEAN_MOTION_DOT":0.00031747,"MEAN_MOTION_DDOT":0},{"OBJECT_NAME":"STARLINK-33969","OBJECT_ID":"2025-093V","EPOCH":"2026-01-08T03:31:30.228960","MEAN_MOTION":15.27588652,"ECCENTRICITY":0.00011751,"INCLINATION":42.9997,"RA_OF_ASC_NODE":59.734,"ARG_OF_PERICENTER":271.9198,"MEAN_ANOMALY":88.1519,"EPHEMERIS_TYPE":0,"CLASSIFICATION_TYPE":"U","NORAD_CAT_ID":63855,"ELEMENT_SET_NO":999,"REV_AT_EPOCH":3849,"BSTAR":0.00071243717,"MEAN_MOTION_DOT":0.00019399,"MEAN_MOTION_DDOT":0},{"OBJECT_NAME":"STARLINK-34002","OBJECT_ID":"2025-093W","EPOCH":"2026-01-08T03:44:27.444480","MEAN_MOTION":15.27590262,"ECCENTRICITY":7.128e-5,"INCLINATION":42.9969,"RA_OF_ASC_NODE":59.8031,"ARG_OF_PERICENTER":271.0416,"MEAN_ANOMALY":89.0354,"EPHEMERIS_TYPE":0,"CLASSIFICATION_TYPE":"U","NORAD_CAT_ID":63856,"ELEMENT_SET_NO":999,"REV_AT_EPOCH":3849,"BSTAR":0.00092088786,"MEAN_MOTION_DOT":0.00025173,"MEAN_MOTION_DDOT":0},{"OBJECT_NAME":"STARLINK-33999","OBJECT_ID":"2025-093X","EPOCH":"2026-01-08T03:24:05.743296","MEAN_MOTION":15.27587744,"ECCENTRICITY":0.00010572,"INCLINATION":42.9998,"RA_OF_ASC_NODE":59.679,"ARG_OF_PERICENTER":244.1845,"MEAN_ANOMALY":115.8898,"EPHEMERIS_TYPE":0,"CLASSIFICATION_TYPE":"U","NORAD_CAT_ID":63857,"ELEMENT_SET_NO":999,"REV_AT_EPOCH":3871,"BSTAR":0.0007054598,"MEAN_MOTION_DOT":0.00019206,"MEAN_MOTION_DDOT":0},{"OBJECT_NAME":"STARLINK-33976","OBJECT_ID":"2025-093Y","EPOCH":"2026-01-07T13:29:38.414688","MEAN_MOTION":15.27582081,"ECCENTRICITY":0.00014724,"INCLINATION":42.9999,"RA_OF_ASC_NODE":63.0719,"ARG_OF_PERICENTER":262.8821,"MEAN_ANOMALY":97.1864,"EPHEMERIS_TYPE":0,"CLASSIFICATION_TYPE":"U","NORAD_CAT_ID":63858,"ELEMENT_SET_NO":999,"REV_AT_EPOCH":3846,"BSTAR":0.00084906872,"MEAN_MOTION_DOT":0.00023177,"MEAN_MOTION_DDOT":0},{"OBJECT_NAME":"STARLINK-33821","OBJECT_ID":"2025-093Z","EPOCH":"2026-01-08T03:57:24.126912","MEAN_MOTION":15.2758419,"ECCENTRICITY":0.00013068,"INCLINATION":42.9996,"RA_OF_ASC_NODE":59.8472,"ARG_OF_PERICENTER":255.1459,"MEAN_ANOMALY":104.9248,"EPHEMERIS_TYPE":0,"CLASSIFICATION_TYPE":"U","NORAD_CAT_ID":63859,"ELEMENT_SET_NO":999,"REV_AT_EPOCH":3869,"BSTAR":0.00073574695,"MEAN_MOTION_DOT":0.00020042,"MEAN_MOTION_DDOT":0},{"OBJECT_NAME":"STARLINK-33888","OBJECT_ID":"2025-093AA","EPOCH":"2026-01-07T12:04:44.264640","MEAN_MOTION":15.27575741,"ECCENTRICITY":0.00014258,"INCLINATION":42.9995,"RA_OF_ASC_NODE":63.5054,"ARG_OF_PERICENTER":260.5027,"MEAN_ANOMALY":99.5663,"EPHEMERIS_TYPE":0,"CLASSIFICATION_TYPE":"U","NORAD_CAT_ID":63860,"ELEMENT_SET_NO":999,"REV_AT_EPOCH":3861,"BSTAR":0.00064317812,"MEAN_MOTION_DOT":0.00017476,"MEAN_MOTION_DDOT":0},{"OBJECT_NAME":"STARLINK-33896","OBJECT_ID":"2025-093AB","EPOCH":"2026-01-08T03:53:42.547200","MEAN_MOTION":15.27589288,"ECCENTRICITY":8.623e-5,"INCLINATION":42.9989,"RA_OF_ASC_NODE":59.8534,"ARG_OF_PERICENTER":273.582,"MEAN_ANOMALY":86.4933,"EPHEMERIS_TYPE":0,"CLASSIFICATION_TYPE":"U","NORAD_CAT_ID":63861,"ELEMENT_SET_NO":999,"REV_AT_EPOCH":3849,"BSTAR":0.00084295532,"MEAN_MOTION_DOT":0.00023013,"MEAN_MOTION_DDOT":0},{"OBJECT_NAME":"STARLINK-33878","OBJECT_ID":"2025-093AC","EPOCH":"2026-01-08T03:55:33.212640","MEAN_MOTION":15.27578971,"ECCENTRICITY":0.00013353,"INCLINATION":42.9984,"RA_OF_ASC_NODE":59.8347,"ARG_OF_PERICENTER":274.5829,"MEAN_ANOMALY":85.487,"EPHEMERIS_TYPE":0,"CLASSIFICATION_TYPE":"U","NORAD_CAT_ID":63862,"ELEMENT_SET_NO":999,"REV_AT_EPOCH":3870,"BSTAR":0.00062693833,"MEAN_MOTION_DOT":0.00017029,"MEAN_MOTION_DDOT":0},{"OBJECT_NAME":"STARLINK-33954","OBJECT_ID":"2025-093AD","EPOCH":"2026-01-08T04:06:39.581280","MEAN_MOTION":15.27592637,"ECCENTRICITY":6.843e-5,"INCLINATION":42.9992,"RA_OF_ASC_NODE":59.9202,"ARG_OF_PERICENTER":246.3745,"MEAN_ANOMALY":113.7035,"EPHEMERIS_TYPE":0,"CLASSIFICATION_TYPE":"U","NORAD_CAT_ID":63863,"ELEMENT_SET_NO":999,"REV_AT_EPOCH":3849,"BSTAR":0.00062194907,"MEAN_MOTION_DOT":0.00016898,"MEAN_MOTION_DDOT":0},{"OBJECT_NAME":"STARLINK-33863","OBJECT_ID":"2025-094A","EPOCH":"2026-01-08T07:23:33.786816","MEAN_MOTION":14.98336511,"ECCENTRICITY":0.00033345,"INCLINATION":70.0021,"RA_OF_ASC_NODE":26.9027,"ARG_OF_PERICENTER":266.6241,"MEAN_ANOMALY":93.4536,"EPHEMERIS_TYPE":0,"CLASSIFICATION_TYPE":"U","NORAD_CAT_ID":63864,"ELEMENT_SET_NO":999,"REV_AT_EPOCH":3815,"BSTAR":0.0004426674,"MEAN_MOTION_DOT":5.194e-5,"MEAN_MOTION_DDOT":0},{"OBJECT_NAME":"STARLINK-33897","OBJECT_ID":"2025-094B","EPOCH":"2026-01-08T06:41:27.666816","MEAN_MOTION":14.98326394,"ECCENTRICITY":0.00031746,"INCLINATION":70.0018,"RA_OF_ASC_NODE":26.796,"ARG_OF_PERICENTER":270.566,"MEAN_ANOMALY":89.5135,"EPHEMERIS_TYPE":0,"CLASSIFICATION_TYPE":"U","NORAD_CAT_ID":63865,"ELEMENT_SET_NO":999,"REV_AT_EPOCH":3837,"BSTAR":-0.00030289338,"MEAN_MOTION_DOT":-3.705e-5,"MEAN_MOTION_DDOT":0},{"OBJECT_NAME":"STARLINK-34022","OBJECT_ID":"2025-094C","EPOCH":"2026-01-08T05:23:22.605216","MEAN_MOTION":14.9879089,"ECCENTRICITY":0.00045545,"INCLINATION":70.002,"RA_OF_ASC_NODE":27.0084,"ARG_OF_PERICENTER":246.7619,"MEAN_ANOMALY":113.3061,"EPHEMERIS_TYPE":0,"CLASSIFICATION_TYPE":"U","NORAD_CAT_ID":63866,"ELEMENT_SET_NO":999,"REV_AT_EPOCH":3814,"BSTAR":0.014175041,"MEAN_MOTION_DOT":0.00175435,"MEAN_MOTION_DDOT":0},{"OBJECT_NAME":"STARLINK-33979","OBJECT_ID":"2025-094D","EPOCH":"2026-01-08T05:11:20.844672","MEAN_MOTION":14.98319494,"ECCENTRICITY":0.00030341,"INCLINATION":70.0018,"RA_OF_ASC_NODE":26.9814,"ARG_OF_PERICENTER":266.7005,"MEAN_ANOMALY":93.3807,"EPHEMERIS_TYPE":0,"CLASSIFICATION_TYPE":"U","NORAD_CAT_ID":63867,"ELEMENT_SET_NO":999,"REV_AT_EPOCH":3814,"BSTAR":0.00034623114,"MEAN_MOTION_DOT":4.039e-5,"MEAN_MOTION_DDOT":0},{"OBJECT_NAME":"STARLINK-34007","OBJECT_ID":"2025-094E","EPOCH":"2026-01-08T07:17:32.227872","MEAN_MOTION":14.98337226,"ECCENTRICITY":0.0003023,"INCLINATION":70.0018,"RA_OF_ASC_NODE":26.8834,"ARG_OF_PERICENTER":271.7355,"MEAN_ANOMALY":88.3458,"EPHEMERIS_TYPE":0,"CLASSIFICATION_TYPE":"U","NORAD_CAT_ID":63868,"ELEMENT_SET_NO":999,"REV_AT_EPOCH":3815,"BSTAR":0.00031471654,"MEAN_MOTION_DOT":3.665e-5,"MEAN_MOTION_DDOT":0},{"OBJECT_NAME":"STARLINK-34006","OBJECT_ID":"2025-094F","EPOCH":"2026-01-08T07:53:42.899136","MEAN_MOTION":14.98542372,"ECCENTRICITY":0.00021865,"INCLINATION":70.0027,"RA_OF_ASC_NODE":26.5681,"ARG_OF_PERICENTER":180.1369,"MEAN_ANOMALY":179.979,"EPHEMERIS_TYPE":0,"CLASSIFICATION_TYPE":"U","NORAD_CAT_ID":63869,"ELEMENT_SET_NO":999,"REV_AT_EPOCH":3816,"BSTAR":0.0074911805,"MEAN_MOTION_DOT":0.00090956,"MEAN_MOTION_DDOT":0},{"OBJECT_NAME":"STARLINK-33986","OBJECT_ID":"2025-094G","EPOCH":"2026-01-08T06:30:12.233088","MEAN_MOTION":14.96709659,"ECCENTRICITY":0.00062713,"INCLINATION":70.0016,"RA_OF_ASC_NODE":26.7643,"ARG_OF_PERICENTER":135.7831,"MEAN_ANOMALY":224.3829,"EPHEMERIS_TYPE":0,"CLASSIFICATION_TYPE":"U","NORAD_CAT_ID":63870,"ELEMENT_SET_NO":999,"REV_AT_EPOCH":3815,"BSTAR":-0.068806527,"MEAN_MOTION_DOT":-0.00738916,"MEAN_MOTION_DDOT":0},{"OBJECT_NAME":"STARLINK-34013","OBJECT_ID":"2025-094H","EPOCH":"2026-01-08T07:47:33.403488","MEAN_MOTION":14.98345002,"ECCENTRICITY":0.00027713,"INCLINATION":70.0023,"RA_OF_ASC_NODE":26.5577,"ARG_OF_PERICENTER":268.8029,"MEAN_ANOMALY":91.2813,"EPHEMERIS_TYPE":0,"CLASSIFICATION_TYPE":"U","NORAD_CAT_ID":63871,"ELEMENT_SET_NO":999,"REV_AT_EPOCH":3816,"BSTAR":0.00065820199,"MEAN_MOTION_DOT":7.772e-5,"MEAN_MOTION_DDOT":0},{"OBJECT_NAME":"STARLINK-34059","OBJECT_ID":"2025-094J","EPOCH":"2026-01-08T07:11:45.030336","MEAN_MOTION":14.98262914,"ECCENTRICITY":0.00025113,"INCLINATION":70.0046,"RA_OF_ASC_NODE":26.872,"ARG_OF_PERICENTER":251.3125,"MEAN_ANOMALY":108.7761,"EPHEMERIS_TYPE":0,"CLASSIFICATION_TYPE":"U","NORAD_CAT_ID":63872,"ELEMENT_SET_NO":999,"REV_AT_EPOCH":3815,"BSTAR":0.0039742805,"MEAN_MOTION_DOT":0.00047567,"MEAN_MOTION_DDOT":0}]
